STARLINK-4078
1 52689U 22053AK  26090.87953502  .00098060  00000+0  13202-2 0  9990
2 52689  53.2123 336.7832 0003345 138.7224 221.4042 15.57087389215468
